COSMOS 2433 (720)       
1 32275U 07052A   22120.86315822 -.00000079  00000+0  00000+0 0  9990
2 32275  66.0831   6.2494 0001745 297.4218 173.6474  2.13104086112955
COSMOS 2432 (719)       
1 32276U 07052B   22120.46072413 -.00000079  00000+0  00000+0 0  9993
2 32276  66.0972   6.3624 0011004 337.2828 133.5098  2.13103475112944
COSMOS 2434 (721)       
1 32393U 07065A   22120.48343528 -.00000021  00000+0  00000+0 0  9994
2 32393  64.3919 243.0630 0003661  86.0798 343.0683  2.13103023111652
COSMOS 2436 (723)       
1 32395U 07065C   22120.76271734 -.00000018  00000+0  00000+0 0  9992
2 32395  64.4029 243.1089 0015576   4.8487  54.4660  2.13102978111596
COSMOS 2456 (730)       
1 36111U 09070A   22120.80672259  .00000051  00000+0  00000+0 0  9998
2 36111  64.3411 122.6903 0006298 301.6817 181.7141  2.13099122 96329
COSMOS 2457 (733)       
1 36112U 09070B   22120.71785522  .00000052  00000+0  00000+0 0  9998
2 36112  64.3242 122.5703 0004287 199.3546 342.7818  2.13101398 96325
COSMOS 2461 (735)       
1 36401U 10007B   22120.59786470 -.00000078  00000+0  00000+0 0  9999
2 36401  65.9696   5.1020 0022083   8.4551 116.5681  2.13103800 94675
COSMOS 2460 (732)       
1 36402U 10007C   22120.66613197 -.00000078  00000+0  00000+0 0  9993
2 36402  65.9563   5.0515 0002171  25.8454  99.5145  2.13106392 94672
COSMOS 2464 (736)       
1 37139U 10041C   22120.66879216 -.00000019  00000+0  00000+0 0  9990
2 37139  63.9930 242.1546 0029334  12.9823  56.9556  2.13100751 90730
COSMOS 2476 (744)       
1 37867U 11064A   22121.19757425  .00000050  00000+0  00000+0 0  9994
2 37867  64.6306 124.0144 0023200 241.3909  86.9636  2.13101850 81670
COSMOS 2477 (745)       
1 37868U 11064B   22120.64855053  .00000055  00000+0  00000+0 0  9995
2 37868  64.6385 124.0977 0020619 242.7519 202.5476  2.13101700 81622
COSMOS 2475 (743)       
1 37869U 11064C   22121.13074066  .00000051  00000+0  00000+0 0  9994
2 37869  64.6462 124.0888 0025219 258.6947 154.4814  2.13101909 81646
COSMOS 2485 (747)       
1 39155U 13019A   22120.71229932  .00000056  00000+0  00000+0 0  9998
2 39155  64.7947 124.4490 0023536 237.3684 123.0920  2.13101891 70143
COSMOS 2492 (754)       
1 39620U 14012A   22120.62228944 -.00000078  00000+0  00000+0 0  9996
2 39620  65.8429   4.7412 0014023 330.8362 355.1020  2.13103209 63083
COSMOS 2500 (755)       
1 40001U 14032A   22120.84784226 -.00000078  00000+0  00000+0 0  9997
2 40001  65.7820   4.5982 0004197 201.3182 156.4509  2.13102483 61305
COSMOS 2501 (702K)      
1 40315U 14075A   22120.70917385 -.00000019  00000+0  00000+0 0  9996
2 40315  63.7000 242.8400 0017312 206.4363 212.6986  2.13101455 57715
COSMOS 2514 (751)       
1 41330U 16008A   22121.08051713 -.00000079  00000+0  00000+0 0  9994
2 41330  65.5823   4.2939 0007793 209.8427 150.1669  2.13102856 48487
COSMOS 2516 (753)       
1 41554U 16032A   22120.76676132 -.00000018  00000+0  00000+0 0  9994
2 41554  63.9274 243.0999 0013314 212.6468 168.4170  2.13106149 46081
COSMOS 2522 (752)       
1 42939U 17055A   22121.14627800 -.00000014  00000+0  00000+0 0  9995
2 42939  64.1604 243.4698 0006300 238.5930 291.2269  2.13101857 35844
COSMOS 2527 (756)       
1 43508U 18053A   22121.11197181  .00000052  00000+0  00000+0 0  9999
2 43508  64.9582 124.4255 0009779 242.3987 293.2182  2.13102590 30133
COSMOS 2529 (757)       
1 43687U 18086A   22121.16666109 -.00000014  00000+0  00000+0 0  9998
2 43687  64.3752 243.7711 0008011 269.2357 231.7397  2.13102089 27159
COSMOS 2534 (758)       
1 44299U 19030A   22120.85650843 -.00000017  00000+0  00000+0 0  9994
2 44299  64.4470 243.6628 0011060 290.6024 107.0349  2.13102000 22790
COSMOS 2544 (759)       
1 44850U 19088A   22121.04036081  .00000052  00000+0  00000+0 0  9992
2 44850  64.9435 124.2813 0014708 263.8265 260.3578  2.13102362 18568
COSMOS 2545 (760)       
1 45358U 20018A   22120.31762166 -.00000081  00000+0  00000+0 0  9993
2 45358  64.9202   4.9681 0007657 259.6440 279.6184  2.13102692 16508
COSMOS 2547 (705K)      
1 46805U 20075A   22121.25710800 -.00000012  00000+0  00000+0 0  9990
2 46805  64.6709 243.0594 0006133 243.5462 148.9395  2.13103137 11779
